NORAD_CAT_ID,OBJECT_NAME,OBJECT_TYPE,EPOCH,MEAN_MOTION,ECCENTRICITY,INCLINATION,RA_OF_ASC_NODE,ARG_OF_PERICENTER,MEAN_ANOMALY,BSTAR,MEAN_MOTION_DOT,MEAN_MOTION_DDOT,TLE_LINE0,TLE_LINE1,TLE_LINE2,SEMIMAJOR_AXIS,PERIOD,APOGEE,PERIGEE,DECAYED
53020.0,STARLINK-4287,PAYLOAD,2022-08-04 06:00:00,15.73231649,0.0002201999999999,53.2186,242.4704,32.9128,190.6101,-0.0001872,-0.00026848,0.0,0 STARLINK-4287,1 53020U 22076AL  22216.25001157 -.00026848  00000-0 -18720-3 0  9992,2 53020  53.2186 242.4704 0002202  32.9128 190.6101 15.73231649  4868,6727.805,91.531,351.151,348.18800000000016,0.0
53020.0,STARLINK-4287,PAYLOAD,2022-08-04 14:00:01,15.73194368,0.0002301,53.2182,240.8218,26.8992,285.5763,-0.00012238,-0.00017758,0.0,0 STARLINK-4287,1 53020U 22076AL  22216.58334491 -.00017758  00000-0 -12238-3 0  9996,2 53020  53.2182 240.8218 0002301  26.8992 285.5763 15.73194368  1307,6727.911,91.534,351.324,348.228,0.0
53020.0,STARLINK-4287,PAYLOAD,2022-08-04 22:00:00,15.73152196,0.0002017,53.2183,239.1704,29.648000000000003,11.7467,0.000504,0.00070566,0.0,0 STARLINK-4287,1 53020U 22076AL  22216.91667824  .00070566  00000-0  50400-3 0  9999,2 53020  53.2183 239.1704 0002017  29.6480  11.7467 15.73152196  1309,6728.031,91.536,351.254,348.539,0.0
53020.0,STARLINK-4287,PAYLOAD,2022-08-05 06:00:02,15.7321073,0.0002151999999999,53.2183,237.5224,29.221,101.1382,-2.4352e-05,-4.039e-05,0.0,0 STARLINK-4287,1 53020U 22076AL  22217.25002315 -.00004039  00000-0 -24352-4 0  9997,2 53020  53.2183 237.5224 0002152  29.2210 101.1382 15.73210730  5016,6727.865,91.533,351.177,348.282,0.0
53020.0,STARLINK-4287,PAYLOAD,2022-08-05 14:00:01,15.73245772,0.0002201999999999,53.218,235.8737,25.0591,194.2414,-0.00033636,-0.00047658,0.0,0 STARLINK-4287,1 53020U 22076AL  22217.58335648 -.00047658  00000-0 -33636-3 0  9999,2 53020  53.2180 235.8737 0002202  25.0591 194.2414 15.73245772  1306,6727.765,91.531,351.111,348.148,0.0
53020.0,STARLINK-4287,PAYLOAD,2022-08-05 22:00:00,15.73157688,0.0001978,53.2185,234.2222,25.7471,282.4685,0.0005599,0.00078556,0.0,0 STARLINK-4287,1 53020U 22076AL  22217.91667824  .00078556  00000-0  55990-3 0  9996,2 53020  53.2185 234.2222 0001978  25.7471 282.4685 15.73157688  1304,6728.016,91.536,351.212,348.55,0.0
53020.0,STARLINK-4287,PAYLOAD,2022-08-06 14:00:01,15.73195312,0.0002210999999999,53.2183,230.9253,19.6811,106.3906,-0.00010645,-0.00015532,0.0,0 STARLINK-4287,1 53020U 22076AL  22218.58334491 -.00015532  00000-0 -10645-3 0  9996,2 53020  53.2183 230.9253 0002211  19.6811 106.3906 15.73195312  5221,6727.909000000002,91.533,351.261,348.286,0.0
53020.0,STARLINK-4287,PAYLOAD,2022-08-06 22:00:00,15.731635999999998,0.0001939,53.2182,229.2742,21.4998,193.4933,0.00054051,0.00075808,0.0,0 STARLINK-4287,1 53020U 22076AL  22218.91667824  .00075808  00000-0  54051-3 0  9991,2 53020  53.2182 229.2742 0001939  21.4998 193.4933 15.73163600  1304,6727.999,91.535,351.1690000000001,348.559,0.0
53020.0,STARLINK-4287,PAYLOAD,2022-08-07 04:42:48,15.73210139,0.0002237,53.2184,227.8908,20.9481,339.163,2.7326e-05,3.217e-05,0.0,0 STARLINK-4287,1 53020U 22076AL  22219.19639963  .00003217  00000-0  27326-4 0  9996,2 53020  53.2184 227.8908 0002237  20.9481 339.1630 15.73210139  5326,6727.866,91.533,351.236,348.226,0.0
53020.0,STARLINK-4287,PAYLOAD,2022-08-07 14:00:01,15.73218554,0.0002281,53.2178,225.9774,24.1075,8.7466,-0.00035258,-0.00049857,0.0,0 STARLINK-4287,1 53020U 22076AL  22219.58334491 -.00049857  00000-0 -35258-3 0  9991,2 53020  53.2178 225.9774 0002281  24.1075   8.7466 15.73218554  1302,6727.842,91.532,351.242,348.173,0.0
53020.0,STARLINK-4287,PAYLOAD,2022-08-07 19:57:36,15.73235421,0.0002126,53.2182,224.7471,24.79,335.3222,0.0001824,0.00025094,0.0,0 STARLINK-4287,1 53020U 22076AL  22219.83167560  .00025094  00000-0  18240-3 0  9997,2 53020  53.2182 224.7471 0002126  24.7900 335.3222 15.73235421  4954,6727.794,91.531,351.09,348.22900000000016,0.0
53020.0,STARLINK-4287,PAYLOAD,2022-08-08 06:00:00,15.732686,0.0002256999999999,53.2182,222.6783,29.2084,181.5442,-0.00020573,-0.00029482,0.0,0 STARLINK-4287,1 53020U 22076AL  22220.25001157 -.00029482  00000-0 -20573-3 0  9993,2 53020  53.2182 222.6783 0002257  29.2084 181.5442 15.73268600  5495,6727.7,91.529,351.083,348.046,0.0
53020.0,STARLINK-4287,PAYLOAD,2022-08-08 14:00:01,15.73271607,0.0002210999999999,53.2177,221.0287,23.1488,276.6797,-0.00037063,-0.00052479,0.0,0 STARLINK-4287,1 53020U 22076AL  22220.58335648 -.00052479  00000-0 -37063-3 0  9998,2 53020  53.2177 221.0287 0002211  23.1488 276.6797 15.73271607  1308,6727.691,91.529,351.0440000000001,348.069,0.0
53020.0,STARLINK-4287,PAYLOAD,2022-08-08 17:18:18,15.73271659,0.0002293,53.2179,220.3459,30.7035,329.4119,0.00024801,0.00034438,0.0,0 STARLINK-4287,1 53020U 22076AL  22220.72104711  .00034438  00000-0  24801-3 0  9998,2 53020  53.2179 220.3459 0002293  30.7035 329.4119 15.73271659  5569,6727.691,91.529,351.099,348.01300000000015,0.0
53020.0,STARLINK-4287,PAYLOAD,2022-08-08 22:00:00,15.7322157,0.0001947,53.2177,219.3775,24.3975,4.3703,2.8319e-05,3.359e-05,0.0,0 STARLINK-4287,1 53020U 22076AL  22220.91667824  .00003359  00000-0  28319-4 0  9995,2 53020  53.2177 219.3775 0001947  24.3975   4.3703 15.73221570  1306,6727.834,91.532,351.009,348.389,0.0
53020.0,STARLINK-4287,PAYLOAD,2022-08-09 06:00:00,15.73205871,0.0002136,53.2174,217.73,21.9295,95.7803,-0.00070094,-0.00097893,0.0,0 STARLINK-4287,1 53020U 22076AL  22221.25001157 -.00097893  00000-0 -70094-3 0  9998,2 53020  53.2174 217.7300 0002136  21.9295  95.7803 15.73205871  5640,6727.878000000002,91.533,351.181,348.306,0.0
53020.0,STARLINK-4287,PAYLOAD,2022-08-09 14:00:01,15.73177454,0.0001804,53.2172,216.066,16.7536,189.6228,0.00032505,0.00045201,0.0,0 STARLINK-4287,1 53020U 22076AL  22221.58334491  .00045201  00000-0  32505-3 0  9993,2 53020  53.2172 216.0660 0001804  16.7536 189.6228 15.73177454  1308,6727.959,91.534,351.038,348.611,0.0
53020.0,STARLINK-4287,PAYLOAD,2022-08-09 22:00:00,15.73124526,0.0002013,53.2175,214.4292,28.6287,266.8879,0.00057222,0.000802,0.0,0 STARLINK-4287,1 53020U 22076AL  22221.91667824  .00080200  00000-0  57222-3 0  9990,2 53020  53.2175 214.4292 0002013  28.6287 266.8879 15.73124526  5757,6728.11,91.538,351.33,348.621,0.0
53020.0,STARLINK-4287,PAYLOAD,2022-08-10 14:00:01,15.73244092,0.0002181,53.2175,211.132,22.3771,90.9348,-0.00076649,-0.0010705,0.0,0 STARLINK-4287,1 53020U 22076AL  22222.58334491 -.00107050  00000-0 -76649-3 0  9994,2 53020  53.2175 211.1320 0002181  22.3771  90.9348 15.73244092  1303,6727.769,91.531,351.102,348.167,0.0
53020.0,STARLINK-4287,PAYLOAD,2022-08-10 17:07:18,15.73180418,0.0002026,53.2177,210.4876,22.229,108.1803,-3.1466e-05,-5.031e-05,0.0,0 STARLINK-4287,1 53020U 22076AL  22222.71341435 -.00005031  00000-0 -31466-4 0  9990,2 53020  53.2177 210.4876 0002026  22.2290 108.1803 15.73180418  5871,6727.951,91.534,351.17900000000014,348.45300000000015,0.0
53020.0,STARLINK-4287,PAYLOAD,2022-08-10 22:00:00,15.73182204,0.0001935,53.2175,209.4811,26.3333,175.9106,5.3601e-05,6.902e-05,0.0,0 STARLINK-4287,1 53020U 22076AL  22222.91667824  .00006902  00000-0  53601-4 0  9996,2 53020  53.2175 209.4811 0001935  26.3333 175.9106 15.73182204  1304,6727.946,91.534,351.11300000000006,348.509,0.0
53020.0,STARLINK-4287,PAYLOAD,2022-08-11 14:00:01,15.73182711,0.0002210999999999,53.2173,206.1839,28.1406,351.8781,7.2345e-05,9.537e-05,0.0,0 STARLINK-4287,1 53020U 22076AL  22223.58334491  .00009537  00000-0  72345-4 0  9994,2 53020  53.2173 206.1839 0002211  28.1406 351.8781 15.73182711  1302,6727.944,91.534,351.297,348.32199999999995,0.0
53020.0,STARLINK-4287,PAYLOAD,2022-08-11 22:00:00,15.73183098,0.0002044,53.2178,204.533,33.6169,75.3075,0.00051196,0.00071797,0.0,0 STARLINK-4287,1 53020U 22076AL  22223.91667824  .00071797  00000-0  51196-3 0  9997,2 53020  53.2178 204.5330 0002044  33.6169  75.3075 15.73183098  6067,6727.943,91.534,351.184,348.43300000000005,0.0
53020.0,STARLINK-4287,PAYLOAD,2022-08-12 14:00:01,15.73247316,0.0002153,53.218,201.2352,27.6971,259.1702,-4.7924e-05,-7.356e-05,0.0,0 STARLINK-4287,1 53020U 22076AL  22224.58334491 -.00007356  00000-0 -47924-4 0  9999,2 53020  53.2180 201.2352 0002153  27.6971 259.1702 15.73247316  1308,6727.76,91.53,351.074,348.177,0.0
53020.0,STARLINK-4287,PAYLOAD,2022-08-12 22:00:01,15.73253618,0.0002013,53.2183,199.5846,32.3167,343.5824,-0.00030834,-0.00043773,0.0,0 STARLINK-4287,1 53020U 22076AL  22224.91668981 -.00043773  00000-0 -30834-3 0  9994,2 53020  53.2183 199.5846 0002013  32.3167 343.5824 15.73253618  1308,6727.7419999999975,91.53,350.962,348.25300000000016,0.0
53020.0,STARLINK-4287,PAYLOAD,2022-08-13 06:00:02,15.73222009,0.0002186999999999,53.218,197.9373,27.6485,77.2114,-0.0009195,-0.00127862,0.0,0 STARLINK-4287,1 53020U 22076AL  22225.25002315 -.00127862  00000-0 -91950-3 0  9993,2 53020  53.2180 197.9373 0002187  27.6485  77.2114 15.73222009  6278,6727.831999999999,91.532,351.1690000000001,348.226,0.0
53020.0,STARLINK-4287,PAYLOAD,2022-08-13 14:00:01,15.7313705,0.0001985,53.218,196.287,21.7493,171.9405,-0.00013546,-0.00019537,0.0,0 STARLINK-4287,1 53020U 22076AL  22225.58334491 -.00019537  00000-0 -13546-3 0  9996,2 53020  53.2180 196.2870 0001985  21.7493 171.9405 15.73137050  1306,6728.075,91.537,351.275,348.60400000000016,0.0
53020.0,STARLINK-4287,PAYLOAD,2022-08-13 22:00:00,15.7313204,0.0001831,53.2185,194.6366,26.4842,256.0469,0.00045212,0.00063127,0.0,0 STARLINK-4287,1 53020U 22076AL  22225.91667824  .00063127  00000-0  45212-3 0  9999,2 53020  53.2185 194.6366 0001831  26.4842 256.0469 15.73132040  1302,6728.089,91.537,351.186,348.722,0.0
53020.0,STARLINK-4287,PAYLOAD,2022-08-14 14:00:01,15.7323905,0.0001966,53.2186,191.3386,23.4944,77.0249,-0.00016456,-0.00023691,0.0,0 STARLINK-4287,1 53020U 22076AL  22226.58334491 -.00023691  00000-0 -16456-3 0  9996,2 53020  53.2186 191.3386 0001966  23.4944  77.0249 15.73239050  6488,6727.784000000002,91.531,350.972,348.326,0.0
